STARLINK-4599           
1 53631U 22104AV  23250.72907126  .00000386  00000+0  42356-4 0  9993
2 53631  53.2188  16.6522 0001441  90.9163 269.1994 15.08840447 57785
STARLINK-4606           
1 53632U 22104AW  23251.02811265  .00001026  00000+0  82508-4 0  9991
2 53632  53.2190   5.6911 0000949  89.8417 270.2683 15.08842414 57278
STARLINK-4593           
1 53633U 22104AX  23250.36939939 -.00001348  00000+0 -66629-4 0  9992
2 53633  53.2170   8.6846 0001401  90.7128 269.4025 15.08838451 57176
STARLINK-4592           
1 53634U 22104AY  23250.75578301 -.00000241  00000+0  29683-5 0  9998
2 53634  53.2187   6.8341 0001317 100.5034 259.6107 15.08840796 58254
STARLINK-4587           
1 53635U 22104AZ  23250.75946960 -.00000535  00000+0 -15531-4 0  9992
2 53635  53.2179   6.8571 0001271  87.9734 272.1403 15.08842815 58258
STARLINK-4586           
1 53636U 22104BA  23250.74841453  .00000053  00000+0  21434-4 0  9995
2 53636  53.2181   6.7897 0001315  91.3840 268.7303 15.08841682 58259
STARLINK-4396           
1 53637U 22104BB  23251.01705958  .00000735  00000+0  64294-4 0  9994
2 53637  53.2191   5.6208 0001611  87.1569 272.9607 15.08842076 57278
STARLINK-4594           
1 53638U 22104BC  23250.72998946  .00001242  00000+0  96083-4 0  9998
2 53638  53.2186   6.6781 0001335  86.0498 274.0647 15.08847786 58251
STARLINK-4422           
1 53639U 22104BD  23250.74472787  .00000162  00000+0  28239-4 0  9999
2 53639  53.2175   6.7632 0001149 107.7344 252.3774 15.08843637 58082
STARLINK-4597           
1 53640U 22104BE  23250.74104477  .00000123  00000+0  25807-4 0  9994
2 53640  53.2177   6.7429 0001279  97.5679 262.5458 15.08841594 57239
STARLINK-4588           
1 53641U 22104BF  23250.73735379  .00000673  00000+0  60318-4 0  9991
2 53641  53.2188   6.7195 0001071 127.9584 232.1505 15.08853253 58259
STARLINK-4622           
1 53648U 22105A   23250.64100791 -.00000235  00000+0 -13711-4 0  9994
2 53648  97.6543 130.5217 0000731 160.5963 199.5290 15.01258504 56100
STARLINK-4386           
1 53649U 22105B   23250.10593154  .00001922  00000+0  15414-3 0  9998
2 53649  97.6560 129.9961 0000565 193.8673 166.2536 15.01264728 56299
STARLINK-4380           
1 53650U 22105C   23251.10388705 -.00001087  00000+0 -80088-4 0  9999
2 53650  97.6547 130.9789 0000690 157.4301 202.6953 15.01250967 56444
STARLINK-4388           
1 53651U 22105D   23250.10223064  .00002063  00000+0  16518-3 0  9994
2 53651  97.6560 129.9933 0000792 173.1217 187.0019 15.01262493 56012
STARLINK-4374           
1 53652U 22105E   23250.70024935  .00003011  00000+0  23889-3 0  9990
2 53652  97.6547 130.5789 0000542  92.6806 267.4480 15.01269644 56107
STARLINK-4390           
1 53653U 22105F   23250.11889987  .00001951  00000+0  15641-3 0  9990
2 53653  97.6554 129.9639 0001297  91.7400 268.3973 15.01262919 56015
