[{"OBJECT_NAME":"STARLINK-4599","OBJECT_ID":"2022-104AV","EPOCH":"2023-09-07T17:29:51.756864","MEAN_MOTION":15.08840447,"ECCENTRICITY":0.0001441,"INCLINATION":53.2188,"RA_OF_ASC_NODE":16.6522,"ARG_OF_PERICENTER":90.9163,"MEAN_ANOMALY":269.1994,"EPHEMERIS_TYPE":0,"CLASSIFICATION_TYPE":"U","NORAD_CAT_ID":53631,"ELEMENT_SET_NO":999,"REV_AT_EPOCH":5778,"BSTAR":4.2356e-5,"MEAN_MOTION_DOT":3.86e-6,"MEAN_MOTION_DDOT":0},{"OBJECT_NAME":"STARLINK-4606","OBJECT_ID":"2022-104AW","EPOCH":"2023-09-08T00:40:28.932960","MEAN_MOTION":15.08842414,"ECCENTRICITY":9.49e-5,"INCLINATION":53.219,"RA_OF_ASC_NODE":5.6911,"ARG_OF_PERICENTER":89.8417,"MEAN_ANOMALY":270.2683,"EPHEMERIS_TYPE":0,"CLASSIFICATION_TYPE":"U","NORAD_CAT_ID":53632,"ELEMENT_SET_NO":999,"REV_AT_EPOCH":5727,"BSTAR":8.2508e-5,"MEAN_MOTION_DOT":1.026e-5,"MEAN_MOTION_DDOT":0},{"OBJECT_NAME":"STARLINK-4593","OBJECT_ID":"2022-104AX","EPOCH":"2023-09-07T08:51:56.107296","MEAN_MOTION":15.08838451,"ECCENTRICITY":0.0001401,"INCLINATION":53.217,"RA_OF_ASC_NODE":8.6846,"ARG_OF_PERICENTER":90.7128,"MEAN_ANOMALY":269.4025,"EPHEMERIS_TYPE":0,"CLASSIFICATION_TYPE":"U","NORAD_CAT_ID":53633,"ELEMENT_SET_NO":999,"REV_AT_EPOCH":5717,"BSTAR":-6.6629e-5,"MEAN_MOTION_DOT":-1.348e-5,"MEAN_MOTION_DDOT":0},{"OBJECT_NAME":"STARLINK-4592","OBJECT_ID":"2022-104AY","EPOCH":"2023-09-07T18:08:19.652064","MEAN_MOTION":15.08840796,"ECCENTRICITY":0.0001317,"INCLINATION":53.2187,"RA_OF_ASC_NODE":6.8341,"ARG_OF_PERICENTER":100.5034,"MEAN_ANOMALY":259.6107,"EPHEMERIS_TYPE":0,"CLASSIFICATION_TYPE":"U","NORAD_CAT_ID":53634,"ELEMENT_SET_NO":999,"REV_AT_EPOCH":5825,"BSTAR":2.9683e-6,"MEAN_MOTION_DOT":-2.41e-6,"MEAN_MOTION_DDOT":0},{"OBJECT_NAME":"STARLINK-4587","OBJECT_ID":"2022-104AZ","EPOCH":"2023-09-07T18:13:38.173440","MEAN_MOTION":15.08842815,"ECCENTRICITY":0.0001271,"INCLINATION":53.2179,"RA_OF_ASC_NODE":6.8571,"ARG_OF_PERICENTER":87.9734,"MEAN_ANOMALY":272.1403,"EPHEMERIS_TYPE":0,"CLASSIFICATION_TYPE":"U","NORAD_CAT_ID":53635,"ELEMENT_SET_NO":999,"REV_AT_EPOCH":5825,"BSTAR":-1.5531e-5,"MEAN_MOTION_DOT":-5.35e-6,"MEAN_MOTION_DDOT":0},{"OBJECT_NAME":"STARLINK-4586","OBJECT_ID":"2022-104BA","EPOCH":"2023-09-07T17:57:43.015392","MEAN_MOTION":15.08841682,"ECCENTRICITY":0.0001315,"INCLINATION":53.2181,"RA_OF_ASC_NODE":6.7897,"ARG_OF_PERICENTER":91.384,"MEAN_ANOMALY":268.7303,"EPHEMERIS_TYPE":0,"CLASSIFICATION_TYPE":"U","NORAD_CAT_ID":53636,"ELEMENT_SET_NO":999,"REV_AT_EPOCH":5825,"BSTAR":2.1434e-5,"MEAN_MOTION_DOT":5.3e-7,"MEAN_MOTION_DDOT":0},{"OBJECT_NAME":"STARLINK-4396","OBJECT_ID":"2022-104BB","EPOCH":"2023-09-08T00:24:33.947712","MEAN_MOTION":15.08842076,"ECCENTRICITY":0.0001611,"INCLINATION":53.2191,"RA_OF_ASC_NODE":5.6208,"ARG_OF_PERICENTER":87.1569,"MEAN_ANOMALY":272.9607,"EPHEMERIS_TYPE":0,"CLASSIFICATION_TYPE":"U","NORAD_CAT_ID":53637,"ELEMENT_SET_NO":999,"REV_AT_EPOCH":5727,"BSTAR":6.4294e-5,"MEAN_MOTION_DOT":7.35e-6,"MEAN_MOTION_DDOT":0},{"OBJECT_NAME":"STARLINK-4594","OBJECT_ID":"2022-104BC","EPOCH":"2023-09-07T17:31:11.089344","MEAN_MOTION":15.08847786,"ECCENTRICITY":0.0001335,"INCLINATION":53.2186,"RA_OF_ASC_NODE":6.6781,"ARG_OF_PERICENTER":86.0498,"MEAN_ANOMALY":274.0647,"EPHEMERIS_TYPE":0,"CLASSIFICATION_TYPE":"U","NORAD_CAT_ID":53638,"ELEMENT_SET_NO":999,"REV_AT_EPOCH":5825,"BSTAR":9.6083e-5,"MEAN_MOTION_DOT":1.242e-5,"MEAN_MOTION_DDOT":0},{"OBJECT_NAME":"STARLINK-4422","OBJECT_ID":"2022-104BD","EPOCH":"2023-09-07T17:52:24.487968","MEAN_MOTION":15.08843637,"ECCENTRICITY":0.0001149,"INCLINATION":53.2175,"RA_OF_ASC_NODE":6.7632,"ARG_OF_PERICENTER":107.7344,"MEAN_ANOMALY":252.3774,"EPHEMERIS_TYPE":0,"CLASSIFICATION_TYPE":"U","NORAD_CAT_ID":53639,"ELEMENT_SET_NO":999,"REV_AT_EPOCH":5808,"BSTAR":2.8239e-5,"MEAN_MOTION_DOT":1.62e-6,"MEAN_MOTION_DDOT":0},{"OBJECT_NAME":"STARLINK-4597","OBJECT_ID":"2022-104BE","EPOCH":"2023-09-07T17:47:06.268128","MEAN_MOTION":15.08841594,"ECCENTRICITY":0.0001279,"INCLINATION":53.2177,"RA_OF_ASC_NODE":6.7429,"ARG_OF_PERICENTER":97.5679,"MEAN_ANOMALY":262.5458,"EPHEMERIS_TYPE":0,"CLASSIFICATION_TYPE":"U","NORAD_CAT_ID":53640,"ELEMENT_SET_NO":999,"REV_AT_EPOCH":5723,"BSTAR":2.5807e-5,"MEAN_MOTION_DOT":1.23e-6,"MEAN_MOTION_DDOT":0},{"OBJECT_NAME":"STARLINK-4588","OBJECT_ID":"2022-104BF","EPOCH":"2023-09-07T17:41:47.367456","MEAN_MOTION":15.08853253,"ECCENTRICITY":0.0001071,"INCLINATION":53.2188,"RA_OF_ASC_NODE":6.7195,"ARG_OF_PERICENTER":127.9584,"MEAN_ANOMALY":232.1505,"EPHEMERIS_TYPE":0,"CLASSIFICATION_TYPE":"U","NORAD_CAT_ID":53641,"ELEMENT_SET_NO":999,"REV_AT_EPOCH":5825,"BSTAR":6.0318e-5,"MEAN_MOTION_DOT":6.73e-6,"MEAN_MOTION_DDOT":0},{"OBJECT_NAME":"STARLINK-4622","OBJECT_ID":"2022-105A","EPOCH":"2023-09-07T15:23:03.083424","MEAN_MOTION":15.01258504,"ECCENTRICITY":7.31e-5,"INCLINATION":97.6543,"RA_OF_ASC_NODE":130.5217,"ARG_OF_PERICENTER":160.5963,"MEAN_ANOMALY":199.529,"EPHEMERIS_TYPE":0,"CLASSIFICATION_TYPE":"U","NORAD_CAT_ID":53648,"ELEMENT_SET_NO":999,"REV_AT_EPOCH":5610,"BSTAR":-1.3711e-5,"MEAN_MOTION_DOT":-2.35e-6,"MEAN_MOTION_DDOT":0},{"OBJECT_NAME":"STARLINK-4386","OBJECT_ID":"2022-105B","EPOCH":"2023-09-07T02:32:32.485056","MEAN_MOTION":15.01264728,"ECCENTRICITY":5.65e-5,"INCLINATION":97.656,"RA_OF_ASC_NODE":129.9961,"ARG_OF_PERICENTER":193.8673,"MEAN_ANOMALY":166.2536,"EPHEMERIS_TYPE":0,"CLASSIFICATION_TYPE":"U","NORAD_CAT_ID":53649,"ELEMENT_SET_NO":999,"REV_AT_EPOCH":5629,"BSTAR":0.00015414,"MEAN_MOTION_DOT":1.922e-5,"MEAN_MOTION_DDOT":0},{"OBJECT_NAME":"STARLINK-4380","OBJECT_ID":"2022-105C","EPOCH":"2023-09-08T02:29:35.841120","MEAN_MOTION":15.01250967,"ECCENTRICITY":6.9e-5,"INCLINATION":97.6547,"RA_OF_ASC_NODE":130.9789,"ARG_OF_PERICENTER":157.4301,"MEAN_ANOMALY":202.6953,"EPHEMERIS_TYPE":0,"CLASSIFICATION_TYPE":"U","NORAD_CAT_ID":53650,"ELEMENT_SET_NO":999,"REV_AT_EPOCH":5644,"BSTAR":-8.0088e-5,"MEAN_MOTION_DOT":-1.087e-5,"MEAN_MOTION_DDOT":0},{"OBJECT_NAME":"STARLINK-4388","OBJECT_ID":"2022-105D","EPOCH":"2023-09-07T02:27:12.727296","MEAN_MOTION":15.01262493,"ECCENTRICITY":7.92e-5,"INCLINATION":97.656,"RA_OF_ASC_NODE":129.9933,"ARG_OF_PERICENTER":173.1217,"MEAN_ANOMALY":187.0019,"EPHEMERIS_TYPE":0,"CLASSIFICATION_TYPE":"U","NORAD_CAT_ID":53651,"ELEMENT_SET_NO":999,"REV_AT_EPOCH":5601,"BSTAR":0.00016518,"MEAN_MOTION_DOT":2.063e-5,"MEAN_MOTION_DDOT":0},{"OBJECT_NAME":"STARLINK-4374","OBJECT_ID":"2022-105E","EPOCH":"2023-09-07T16:48:21.543840","MEAN_MOTION":15.01269644,"ECCENTRICITY":5.42e-5,"INCLINATION":97.6547,"RA_OF_ASC_NODE":130.5789,"ARG_OF_PERICENTER":92.6806,"MEAN_ANOMALY":267.448,"EPHEMERIS_TYPE":0,"CLASSIFICATION_TYPE":"U","NORAD_CAT_ID":53652,"ELEMENT_SET_NO":999,"REV_AT_EPOCH":5610,"BSTAR":0.00023889,"MEAN_MOTION_DOT":3.011e-5,"MEAN_MOTION_DDOT":0},{"OBJECT_NAME":"STARLINK-4390","OBJECT_ID":"2022-105F","EPOCH":"2023-09-07T02:51:12.948768","MEAN_MOTION":15.01262919,"ECCENTRICITY":0.0001297,"INCLINATION":97.6554,"RA_OF_ASC_NODE":129.9639,"ARG_OF_PERICENTER":91.74,"MEAN_ANOMALY":268.3973,"EPHEMERIS_TYPE":0,"CLASSIFICATION_TYPE":"U","NORAD_CAT_ID":53653,"ELEMENT_SET_NO":999,"REV_AT_EPOCH":5601,"BSTAR":0.00015641,"MEAN_MOTION_DOT":1.951e-5,"MEAN_MOTION_DDOT":0}]
